OBJECT_NAME,OBJECT_ID,EPOCH,MEAN_MOTION,ECCENTRICITY,INCLINATION,RA_OF_ASC_NODE,ARG_OF_PERICENTER,MEAN_ANOMALY,EPHEMERIS_TYPE,CLASSIFICATION_TYPE,NORAD_CAT_ID,ELEMENT_SET_NO,REV_AT_EPOCH,BSTAR,MEAN_MOTION_DOT,MEAN_MOTION_DDOT
INNOSAT 3 (RS92S0),2025-155U,2026-06-27T03:54:12.356064,15.44524949,.00078,97.4480,149.9015,128.5801,231.6147,0,U,64894,999,8250,.8901E-3,.41412E-3,0
KNACKSAT-2,1998-067XZ,2026-06-26T21:25:59.704032,15.60825200,.0008662,51.6279,245.6263,259.0293,100.9727,0,U,67683,999,2179,.54854E-3,.46488E-3,0
