INNOSAT3 (RS92S0)
1 64894U 25155U   26178.16264301  .00041412  00000-0  89010-3 0  9999
2 64894  97.4480 149.9015 0007800 128.5801 231.6147 15.44524949 82500
KNACKSAT-2
1 67683U 98067XZ  26177.89305213  .00046488  00000-0  54854-3 0  9993
2 67683  51.6279 245.6263 0008662 259.0293 100.9727 15.60825200 21796
